{"type": "FeatureCollection", "features": [{"type": "Feature", "properties": {"norad_id": 22675, "name": "COSMOS 2251", "group": "cosmos-2251-debris", "lat": 50.23070948772212, "lon": -9.236665092884188, "alt_km": 759.1342647904521, "timestamp": "2025-12-04T15:47:54.491408+00:00", "meta": {"OBJECT_NAME": "COSMOS 2251", "OBJECT_ID": "1993-036A", "EPOCH": "2025-12-04T07:10:35.293440", "MEAN_MOTION": 14.33200928, "ECCENTRICITY": 0.00237066, "INCLINATION": 74.0394, "RA_OF_ASC_NODE": 331.3069, "ARG_OF_PERICENTER": 56.2326, "MEAN_ANOMALY": 304.1079, "EPHEMERIS_TYPE": 0, "CLASSIFICATION_TYPE": "U", "NORAD_CAT_ID": 22675, "ELEMENT_SET_NO": 999, "REV_AT_EPOCH": 69652, "BSTAR": 0.00010374684, "MEAN_MOTION_DOT": 2.6e-06, "MEAN_MOTION_DDOT": 0}, "tle": {"line1": "1 22675U 93036A   25338.29901960  .00000260  00000+0  10375-3 0  9996", "line2": "2 22675  74.0394 331.3069 0023706  56.2326 304.1079 14.33200928696522"}}, "geometry": {"type": "Point", "coordinates": [-9.236665092884188, 50.23070948772212]}}, {"type": "Feature", "properties": {"norad_id": 33757, "name": "COSMOS 2251 DEB", "group": "cosmos-2251-debris", "lat": 64.39722211283606, "lon": 121.68421820226902, "alt_km": 781.3381568065661, "timestamp": "2025-12-04T15:47:54.491435+00:00", "meta": {"OBJECT_NAME": "COSMOS 2251 DEB", "OBJECT_ID": "1993-036E", "EPOCH": "2025-12-04T07:23:34.172160", "MEAN_MOTION": 14.32577736, "ECCENTRICITY": 0.00149327, "INCLINATION": 74.0367, "RA_OF_ASC_NODE": 339.0035, "ARG_OF_PERICENTER": 353.9362, "MEAN_ANOMALY": 110.6154, "EPHEMERIS_TYPE": 0, "CLASSIFICATION_TYPE": "U", "NORAD_CAT_ID": 33757, "ELEMENT_SET_NO": 999, "REV_AT_EPOCH": 87875, "BSTAR": 8.7573436e-05, "MEAN_MOTION_DOT": 2.12e-06, "MEAN_MOTION_DDOT": 0}, "tle": {"line1": "1 33757U 93036E   25338.30803440  .00000212  00000+0  87573-4 0  9997", "line2": "2 33757  74.0367 339.0035 0014932 353.9362 110.6154 14.32577736878755"}}, "geometry": {"type": "Point", "coordinates": [121.68421820226902, 64.39722211283606]}}, {"type": "Feature", "properties": {"norad_id": 33758, "name": "COSMOS 2251 DEB", "group": "cosmos-2251-debris", "lat": -41.75151367706247, "lon": 65.06105616485027, "alt_km": 723.4301764902539, "timestamp": "2025-12-04T15:47:54.491450+00:00", "meta": {"OBJECT_NAME": "COSMOS 2251 DEB", "OBJECT_ID": "1993-036F", "EPOCH": "2025-12-04T03:53:16.004256", "MEAN_MOTION": 14.51506958, "ECCENTRICITY": 0.00175815, "INCLINATION": 74.0288, "RA_OF_ASC_NODE": 231.1846, "ARG_OF_PERICENTER": 298.5434, "MEAN_ANOMALY": 213.1855, "EPHEMERIS_TYPE": 0, "CLASSIFICATION_TYPE": "U", "NORAD_CAT_ID": 33758, "ELEMENT_SET_NO": 999, "REV_AT_EPOCH": 88180, "BSTAR": 0.0018458286, "MEAN_MOTION_DOT": 7.374e-05, "MEAN_MOTION_DDOT": 0}, "tle": {"line1": "1 33758U 93036F   25338.16199079  .00007374  00000+0  18458-2 0  9998", "line2": "2 33758  74.0288 231.1846 0017581 298.5434 213.1855 14.51506958881803"}}, "geometry": {"type": "Point", "coordinates": [65.06105616485027, -41.75151367706247]}}, {"type": "Feature", "properties": {"norad_id": 33760, "name": "COSMOS 2251 DEB", "group": "cosmos-2251-debris", "lat": -73.81662095501385, "lon": -163.09190514507773, "alt_km": 788.7025000902067, "timestamp": "2025-12-04T15:47:54.491463+00:00", "meta": {"OBJECT_NAME": "COSMOS 2251 DEB", "OBJECT_ID": "1993-036H", "EPOCH": "2025-12-04T06:41:47.949216", "MEAN_MOTION": 14.3566372, "ECCENTRICITY": 0.00195175, "INCLINATION": 74.0317, "RA_OF_ASC_NODE": 296.9841, "ARG_OF_PERICENTER": 37.7701, "MEAN_ANOMALY": 70.5081, "EPHEMERIS_TYPE": 0, "CLASSIFICATION_TYPE": "U", "NORAD_CAT_ID": 33760, "ELEMENT_SET_NO": 999, "REV_AT_EPOCH": 88003, "BSTAR": 0.0002190608, "MEAN_MOTION_DOT": 6.07e-06, "MEAN_MOTION_DDOT": 0}, "tle": {"line1": "1 33760U 93036H   25338.27902719  .00000607  00000+0  21906-3 0  9991", "line2": "2 33760  74.0317 296.9841 0019517  37.7701  70.5081 14.35663720880037"}}, "geometry": {"type": "Point", "coordinates": [-163.09190514507773, -73.81662095501385]}}, {"type": "Feature", "properties": {"norad_id": 33761, "name": "COSMOS 2251 DEB", "group": "cosmos-2251-debris", "lat": -2.912471725013721, "lon": -93.67858843469747, "alt_km": 737.1688667673143, "timestamp": "2025-12-04T15:47:54.491475+00:00", "meta": {"OBJECT_NAME": "COSMOS 2251 DEB", "OBJECT_ID": "1993-036J", "EPOCH": "2025-12-04T06:24:41.719392", "MEAN_MOTION": 14.42501759, "ECCENTRICITY": 0.00227743, "INCLINATION": 74.0369, "RA_OF_ASC_NODE": 267.8811, "ARG_OF_PERICENTER": 349.3546, "MEAN_ANOMALY": 137.4241, "EPHEMERIS_TYPE": 0, "CLASSIFICATION_TYPE": "U", "NORAD_CAT_ID": 33761, "ELEMENT_SET_NO": 999, "REV_AT_EPOCH": 88112, "BSTAR": 0.0011580948, "MEAN_MOTION_DOT": 3.826e-05, "MEAN_MOTION_DDOT": 0}, "tle": {"line1": "1 33761U 93036J   25338.26714953  .00003826  00000+0  11581-2 0  9995", "line2": "2 33761  74.0369 267.8811 0022774 349.3546 137.4241 14.42501759881120"}}, "geometry": {"type": "Point", "coordinates": [-93.67858843469747, -2.912471725013721]}}, {"type": "Feature", "properties": {"norad_id": 33762, "name": "COSMOS 2251 DEB", "group": "cosmos-2251-debris", "lat": -72.8725132087443, "lon": -146.98586807921723, "alt_km": 792.4907389484406, "timestamp": "2025-12-04T15:47:54.491487+00:00", "meta": {"OBJECT_NAME": "COSMOS 2251 DEB", "OBJECT_ID": "1993-036K", "EPOCH": "2025-12-04T06:41:00.284064", "MEAN_MOTION": 14.33659714, "ECCENTRICITY": 0.00146652, "INCLINATION": 74.0413, "RA_OF_ASC_NODE": 325.4968, "ARG_OF_PERICENTER": 29.5004, "MEAN_ANOMALY": 74.9509, "EPHEMERIS_TYPE": 0, "CLASSIFICATION_TYPE": "U", "NORAD_CAT_ID": 33762, "ELEMENT_SET_NO": 999, "REV_AT_EPOCH": 87926, "BSTAR": 9.4194996e-05, "MEAN_MOTION_DOT": 2.35e-06, "MEAN_MOTION_DDOT": 0}, "tle": {"line1": "1 33762U 93036K   25338.27847551  .00000235  00000+0  94195-4 0  9993", "line2": "2 33762  74.0413 325.4968 0014665  29.5004  74.9509 14.33659714879260"}}, "geometry": {"type": "Point", "coordinates": [-146.98586807921723, -72.8725132087443]}}, {"type": "Feature", "properties": {"norad_id": 33764, "name": "COSMOS 2251 DEB", "group": "cosmos-2251-debris", "lat": -51.06725097466902, "lon": 128.33707426009363, "alt_km": 750.5826723229238, "timestamp": "2025-12-04T15:47:54.491498+00:00", "meta": {"OBJECT_NAME": "COSMOS 2251 DEB", "OBJECT_ID": "1993-036M", "EPOCH": "2025-12-04T06:57:27.936288", "MEAN_MOTION": 14.39481401, "ECCENTRICITY": 0.0024239, "INCLINATION": 74.0333, "RA_OF_ASC_NODE": 288.2601, "ARG_OF_PERICENTER": 255.3697, "MEAN_ANOMALY": 230.5298, "EPHEMERIS_TYPE": 0, "CLASSIFICATION_TYPE": "U", "NORAD_CAT_ID": 33764, "ELEMENT_SET_NO": 999, "REV_AT_EPOCH": 88035, "BSTAR": 0.00071158239, "MEAN_MOTION_DOT": 2.199e-05, "MEAN_MOTION_DDOT": 0}, "tle": {"line1": "1 33764U 93036M   25338.28990667  .00002199  00000+0  71158-3 0  9997", "line2": "2 33764  74.0333 288.2601 0024239 255.3697 230.5298 14.39481401880357"}}, "geometry": {"type": "Point", "coordinates": [128.33707426009363, -51.06725097466902]}}, {"type": "Feature", "properties": {"norad_id": 33765, "name": "COSMOS 2251 DEB", "group": "cosmos-2251-debris", "lat": -3.9132509163084, "lon": 10.929552716129843, "alt_km": 549.1126766125917, "timestamp": "2025-12-04T15:47:54.491508+00:00", "meta": {"OBJECT_NAME": "COSMOS 2251 DEB", "OBJECT_ID": "1993-036N", "EPOCH": "2025-12-04T01:10:33.505824", "MEAN_MOTION": 15.09134383, "ECCENTRICITY": 0.00675871, "INCLINATION": 74.0112, "RA_OF_ASC_NODE": 191.0631, "ARG_OF_PERICENTER": 284.7774, "MEAN_ANOMALY": 191.1703, "EPHEMERIS_TYPE": 0, "CLASSIFICATION_TYPE": "U", "NORAD_CAT_ID": 33765, "ELEMENT_SET_NO": 999, "REV_AT_EPOCH": 89487, "BSTAR": 0.0040594331, "MEAN_MOTION_DOT": 0.00068552, "MEAN_MOTION_DDOT": 0}, "tle": {"line1": "1 33765U 93036N   25338.04899891  .00068552  00000+0  40594-2 0  9993", "line2": "2 33765  74.0112 191.0631 0067587 284.7774 191.1703 15.09134383894879"}}, "geometry": {"type": "Point", "coordinates": [10.929552716129843, -3.9132509163084]}}, {"type": "Feature", "properties": {"norad_id": 33766, "name": "COSMOS 2251 DEB", "group": "cosmos-2251-debris", "lat": 46.80955983795351, "lon": 167.22801802645156, "alt_km": 743.9594069600416, "timestamp": "2025-12-04T15:47:54.491520+00:00", "meta": {"OBJECT_NAME": "COSMOS 2251 DEB", "OBJECT_ID": "1993-036P", "EPOCH": "2025-12-04T05:31:57.181152", "MEAN_MOTION": 14.34897366, "ECCENTRICITY": 0.00637018, "INCLINATION": 74.1846, "RA_OF_ASC_NODE": 150.4304, "ARG_OF_PERICENTER": 356.2282, "MEAN_ANOMALY": 3.8382, "EPHEMERIS_TYPE": 0, "CLASSIFICATION_TYPE": "U", "NORAD_CAT_ID": 33766, "ELEMENT_SET_NO": 999, "REV_AT_EPOCH": 87623, "BSTAR": 0.00085392458, "MEAN_MOTION_DOT": 2.459e-05, "MEAN_MOTION_DDOT": 0}, "tle": {"line1": "1 33766U 93036P   25338.23052293  .00002459  00000+0  85392-3 0  9992", "line2": "2 33766  74.1846 150.4304 0063701 356.2282   3.8382 14.34897366876230"}}, "geometry": {"type": "Point", "coordinates": [167.22801802645156, 46.80955983795351]}}, {"type": "Feature", "properties": {"norad_id": 33768, "name": "COSMOS 2251 DEB", "group": "cosmos-2251-debris", "lat": 37.56407497369147, "lon": -114.40105863273396, "alt_km": 768.5850264637347, "timestamp": "2025-12-04T15:47:54.491531+00:00", "meta": {"OBJECT_NAME": "COSMOS 2251 DEB", "OBJECT_ID": "1993-036R", "EPOCH": "2025-12-04T03:47:45.461184", "MEAN_MOTION": 13.58443807, "ECCENTRICITY": 0.03658733, "INCLINATION": 74.0687, "RA_OF_ASC_NODE": 233.716, "ARG_OF_PERICENTER": 33.3492, "MEAN_ANOMALY": 80.7908, "EPHEMERIS_TYPE": 0, "CLASSIFICATION_TYPE": "U", "NORAD_CAT_ID": 33768, "ELEMENT_SET_NO": 999, "REV_AT_EPOCH": 83179, "BSTAR": 0.00061497563, "MEAN_MOTION_DOT": 6.73e-06, "MEAN_MOTION_DDOT": 0}, "tle": {"line1": "1 33768U 93036R   25338.15816506  .00000673  00000+0  61498-3 0  9997", "line2": "2 33768  74.0687 233.7160 0365873  33.3492  80.7908 13.58443807831792"}}, "geometry": {"type": "Point", "coordinates": [-114.40105863273396, 37.56407497369147]}}]}